{
"type": "FeatureCollection",
"name": "24",
"crs": { "type": "name", "properties": { "name": "urn:ogc:def:crs:OGC:1.3:CRS84" } },
"features": [
{ "type": "Feature", "properties": { "ec5_uuid": "864ba699-e570-4b4b-a8e5-be2645573f83", "created_at": "2026-09-08T19:27:28Z", "uploaded_at": "2026-09-23T15:56:28Z", "created_by": "xmatamoros.xm@gmail.com", "title": "864ba699-e570-4b4b-a8e5-be2645573f83", "1_Territorio_Indgena": "Boruca [BOR-06]", "lat_2_Ubicacin": 9.015311, "long_2_Ubicacin": -83.326689, "accuracy_2_Ubicacin": 4, "UTM_Northing_2_Ubicacin": 997359, "UTM_Easting_2_Ubicacin": 244207, "UTM_Zone_2_Ubicacin": "17P", "3_Nombre_de_Proyecto": "Acueducto Mancra ", "4_Descripcin_de_proy": " Acueducto Mancra\n(Mancra significa cuchillo en español)\nInstalación de tanque de distribución de Agua e instalación de tubos de distribución desde naciente\nCapacidad 15mil L\nCombinación de fuentes de financiamiento: \n-CREF: se compraron los tubos\n-ADI: compra de motores (bombas de agua)\n-PRONAE: Mano de obra \n-Grupo parceleros (personas del TI): otros gastos y parte de mano de obra", "5_Inversin_CREF": 650000, "6_Comunidad_TI": "Barrio Mancra", "7_Fecha_de_Inicio__F": "2026", "8_Desembolso_CREF": "I Desembolso CREF", "9_Bloque": "Pacífico Sur ", "10_Hora": "13:25:00", "11_Fecha_de_visita": "08/09/2026", "12_Colaboradora_o": "Ximena Matamoros Sandí", "13_Fotografa": "864ba699-e570-4b4b-a8e5-be2645573f83_1788895630.jpg" }, "geometry": { "type": "Point", "coordinates": [ -83.326689, 9.015311 ] } },
{ "type": "Feature", "properties": { "ec5_uuid": "a0299414-d3e2-47fd-ba46-e7e76b032c07", "created_at": "2026-09-08T19:57:34Z", "uploaded_at": "2026-09-23T15:45:33Z", "created_by": "xmatamoros.xm@gmail.com", "title": "a0299414-d3e2-47fd-ba46-e7e76b032c07", "1_Territorio_Indgena": "Boruca [BOR-06]", "lat_2_Ubicacin": 9.002167, "long_2_Ubicacin": -83.327226, "accuracy_2_Ubicacin": 14, "UTM_Northing_2_Ubicacin": 995905, "UTM_Easting_2_Ubicacin": 244139, "UTM_Zone_2_Ubicacin": "17P", "3_Nombre_de_Proyecto": "Proyecto Cultural Escuela Doris Stone", "4_Descripcin_de_proy": "Proyecto nace de la necesidad de reforzar la cultura desde la educación, por lo que la docente de la materia de Cultura de la Escuela Doris Stone propuso la generación de  Trajes tradicionales Brunka ejidos (10 hombres y 10 mujeres), la compra se hizo a personas artesanas del TI\nSombreros\nMaraquitas \nBateas \nCanastos\nGrupo de baile y teatro \nGrupo Baile los Diablitos\n", "5_Inversin_CREF": 1150000, "6_Comunidad_TI": "Boruca", "7_Fecha_de_Inicio__F": "2026", "8_Desembolso_CREF": "I Desembolso CREF", "9_Bloque": "Pacífico Sur ", "10_Hora": "13:56:00", "11_Fecha_de_visita": "08/09/2026", "12_Colaboradora_o": "Ximena Matamoros Sandí", "13_Fotografa": "a0299414-d3e2-47fd-ba46-e7e76b032c07_1788897440.jpg" }, "geometry": { "type": "Point", "coordinates": [ -83.327226, 9.002167 ] } },
{ "type": "Feature", "properties": { "ec5_uuid": "926e0b3f-edfc-438e-a4a2-d10f7e702bbf", "created_at": "2026-09-08T21:38:52Z", "uploaded_at": "2026-09-23T15:40:12Z", "created_by": "xmatamoros.xm@gmail.com", "title": "926e0b3f-edfc-438e-a4a2-d10f7e702bbf", "1_Territorio_Indgena": "Boruca [BOR-06]", "lat_2_Ubicacin": 9.000935, "long_2_Ubicacin": -83.325818, "accuracy_2_Ubicacin": 5, "UTM_Northing_2_Ubicacin": 995767, "UTM_Easting_2_Ubicacin": 244293, "UTM_Zone_2_Ubicacin": "17P", "3_Nombre_de_Proyecto": "Apoyo a Emisora Cultural Boruca", "4_Descripcin_de_proy": "Compra de insumos para Emisora: \nMicrofonos\nMixer\nCamara\nComputadora\nAdemás del apoyo a la radio emisora, los insumos entregados les ayudan a seguir con el proyecto musical \"Los Duendes\" el cual se conforma por 5 músicos y buscan espacios para ayudar a animar en diferentes eventos en TI y comunidades.\n", "5_Inversin_CREF": 1000000, "6_Comunidad_TI": "Boruca centro", "7_Fecha_de_Inicio__F": "2026", "8_Desembolso_CREF": "I Desembolso CREF", "9_Bloque": "Pacífico Sur ", "10_Hora": "15:36:00", "11_Fecha_de_visita": "08/09/2026", "12_Colaboradora_o": "Ximena Matamoros Sandí", "13_Fotografa": "926e0b3f-edfc-438e-a4a2-d10f7e702bbf_1788903530.jpg" }, "geometry": { "type": "Point", "coordinates": [ -83.325818, 9.000935 ] } },
{ "type": "Feature", "properties": { "ec5_uuid": "0cdc0234-c18a-4397-b3bc-6e4de5be51fc", "created_at": "2026-09-09T15:39:45Z", "uploaded_at": "2026-09-23T15:30:19Z", "created_by": "xmatamoros.xm@gmail.com", "title": "0cdc0234-c18a-4397-b3bc-6e4de5be51fc", "1_Territorio_Indgena": "Ujarrás [UJR-23]", "lat_2_Ubicacin": 9.235419, "long_2_Ubicacin": -83.327075, "accuracy_2_Ubicacin": 6, "UTM_Northing_2_Ubicacin": 1021713, "UTM_Easting_2_Ubicacin": 244322, "UTM_Zone_2_Ubicacin": "17P", "3_Nombre_de_Proyecto": "Proyecto Brigada Infantil y Mejoramiento de Escuela Santa Rosa", "4_Descripcin_de_proy": "Escuela ampliación de Escuela Santa Rosa de PSA\nBrigada Infantil trabajando temas sociales ambientales culturales \nMatricula de escuela: 10 niños tienen una matricula de 23 \n15 niños y niñas en brigada \nApoyo uniformes\n200.000 brigada uniforme camiseta \n300.000 escuela: arreglo de piso", "5_Inversin_CREF": 500000, "6_Comunidad_TI": "Santa María", "7_Fecha_de_Inicio__F": "2025 ", "8_Desembolso_CREF": "II Desembolso CREF", "9_Bloque": "Pacífico Sur ", "10_Hora": "09:39:00", "11_Fecha_de_visita": "09/09/2026", "12_Colaboradora_o": "Ximena Matamoros Sandí", "13_Fotografa": "0cdc0234-c18a-4397-b3bc-6e4de5be51fc_1788968381.jpg" }, "geometry": { "type": "Point", "coordinates": [ -83.327075, 9.235419 ] } },
{ "type": "Feature", "properties": { "ec5_uuid": "772c102b-69f5-466c-b701-6f1a769858c4", "created_at": "2026-09-09T16:16:15Z", "uploaded_at": "2026-09-23T15:28:19Z", "created_by": "xmatamoros.xm@gmail.com", "title": "772c102b-69f5-466c-b701-6f1a769858c4", "1_Territorio_Indgena": "Ujarrás [UJR-23]", "lat_2_Ubicacin": 9.236083, "long_2_Ubicacin": -83.32723, "accuracy_2_Ubicacin": 3, "UTM_Northing_2_Ubicacin": 1021786, "UTM_Easting_2_Ubicacin": 244305, "UTM_Zone_2_Ubicacin": "17P", "3_Nombre_de_Proyecto": "Salón Comunal Santa María", "4_Descripcin_de_proy": "PSA \nContruído con PSA año:\nSalón Comunal Santa María\nCapacidad 100 pp", "5_Inversin_CREF": 9000000, "6_Comunidad_TI": "Santa María", "7_Fecha_de_Inicio__F": "2025", "8_Desembolso_CREF": "I Desembolso CREF", "9_Bloque": "Pacífico Sur ", "10_Hora": "10:15:00", "11_Fecha_de_visita": "09/09/2026", "12_Colaboradora_o": "Ximena Matamoros Sandí", "13_Fotografa": "772c102b-69f5-466c-b701-6f1a769858c4_1788970572.jpg" }, "geometry": { "type": "Point", "coordinates": [ -83.32723, 9.236083 ] } },
{ "type": "Feature", "properties": { "ec5_uuid": "2d8e0405-3c53-461a-99be-e73e9dc7defd", "created_at": "2026-09-09T16:31:37Z", "uploaded_at": "2026-09-23T15:27:06Z", "created_by": "xmatamoros.xm@gmail.com", "title": "2d8e0405-3c53-461a-99be-e73e9dc7defd", "1_Territorio_Indgena": "Ujarrás [UJR-23]", "lat_2_Ubicacin": 9.218811, "long_2_Ubicacin": -83.321458, "accuracy_2_Ubicacin": 4, "UTM_Northing_2_Ubicacin": 1019871, "UTM_Easting_2_Ubicacin": 244927, "UTM_Zone_2_Ubicacin": "17P", "3_Nombre_de_Proyecto": "Camino de la comunidad Santa Cruz", "4_Descripcin_de_proy": "Mejora 1km de lastre en la comunidad de Santa Cruz", "5_Inversin_CREF": 0, "6_Comunidad_TI": "Santa Cruz", "7_Fecha_de_Inicio__F": "2025", "8_Desembolso_CREF": "II Desembolso CREF", "9_Bloque": "Pacífico Sur ", "10_Hora": "10:31:00", "11_Fecha_de_visita": "09/09/2026", "12_Colaboradora_o": "Ximena Matamoros Sandí", "13_Fotografa": "2d8e0405-3c53-461a-99be-e73e9dc7defd_1788971490.jpg" }, "geometry": { "type": "Point", "coordinates": [ -83.321458, 9.218811 ] } },
{ "type": "Feature", "properties": { "ec5_uuid": "a8236334-dbfb-43df-ae46-3f73501de8d1", "created_at": "2026-09-09T17:03:46Z", "uploaded_at": "2026-09-23T15:26:13Z", "created_by": "xmatamoros.xm@gmail.com", "title": "a8236334-dbfb-43df-ae46-3f73501de8d1", "1_Territorio_Indgena": "Ujarrás [UJR-23]", "lat_2_Ubicacin": 9.217282, "long_2_Ubicacin": -83.315587, "accuracy_2_Ubicacin": 4, "UTM_Northing_2_Ubicacin": 1019698, "UTM_Easting_2_Ubicacin": 245572, "UTM_Zone_2_Ubicacin": "17P", "3_Nombre_de_Proyecto": "Puesto de Control y Vigilancia Ujarrás", "4_Descripcin_de_proy": "Puesto de control\nConstrucción de una infraestructura a la entrada del TI con el fin de vigilar la entrada de particulares para evitar la caza, extracción de flora y fauna, así como de drogas. \nHorario: Se abre en las tardes y noches\nCuentan con 3 camaras de vigilancia\nAdministración: La distribución de roles se hace a través de 8hrs cada persona los 7días de la semana (se van rotando)\nSituación explicada: Se quedaron sin fondos y REDD sostuvo esas acciones porque PSA financia esas labores administrativas \nActividades de monitoreo y prevención y vigilancia \nCuando le identifican personas realizando caza, incendios u otras situaciones se  procede a notificar por parte de los guarda recursos \nSe entregan dietas a 12 personas para esas actividades", "5_Inversin_CREF": 8000000, "6_Comunidad_TI": "Ujarrás", "7_Fecha_de_Inicio__F": "2024", "8_Desembolso_CREF": "I Desembolso CREF", "9_Bloque": "Pacífico Sur ", "10_Hora": "11:03:00", "11_Fecha_de_visita": "09/09/2026", "12_Colaboradora_o": "Ximena Matamoros Sandí", "13_Fotografa": "a8236334-dbfb-43df-ae46-3f73501de8d1_1788973423.jpg" }, "geometry": { "type": "Point", "coordinates": [ -83.315587, 9.217282 ] } },
{ "type": "Feature", "properties": { "ec5_uuid": "4f566a58-d635-497b-af09-bd65e28b26e9", "created_at": "2026-09-09T17:18:58Z", "uploaded_at": "2026-09-23T15:23:37Z", "created_by": "xmatamoros.xm@gmail.com", "title": "4f566a58-d635-497b-af09-bd65e28b26e9", "1_Territorio_Indgena": "Ujarrás [UJR-23]", "lat_2_Ubicacin": 9.231165, "long_2_Ubicacin": -83.304728, "accuracy_2_Ubicacin": 6, "UTM_Northing_2_Ubicacin": 1021226, "UTM_Easting_2_Ubicacin": 246775, "UTM_Zone_2_Ubicacin": "17P", "3_Nombre_de_Proyecto": "Centro Cultural", "4_Descripcin_de_proy": "Construcción de un Centro Cultural para que las personas artesanas pudiesen reunirse y vender sus productos. \nNota aclaratoria: Se construyó el Centro cultural sin embargo no se ha utilizado, por lo que se decide que se ampliará y se moverá la oficina de Supervisión de Educación y hacer un espacio compartido ", "5_Inversin_CREF": 12000000, "6_Comunidad_TI": "Ujarrás", "7_Fecha_de_Inicio__F": "2024", "8_Desembolso_CREF": "I Desembolso CREF", "9_Bloque": "Pacífico Sur ", "10_Hora": "11:18:00", "11_Fecha_de_visita": "09/09/2026", "12_Colaboradora_o": "Ximena Matamoros Sandí", "13_Fotografa": "4f566a58-d635-497b-af09-bd65e28b26e9_1788974334.jpg" }, "geometry": { "type": "Point", "coordinates": [ -83.304728, 9.231165 ] } },
{ "type": "Feature", "properties": { "ec5_uuid": "a9744aa4-9c7d-4ac0-a5c7-3c6e3f0c791f", "created_at": "2026-09-09T17:54:15Z", "uploaded_at": "2026-09-23T15:21:23Z", "created_by": "xmatamoros.xm@gmail.com", "title": "a9744aa4-9c7d-4ac0-a5c7-3c6e3f0c791f", "1_Territorio_Indgena": "Ujarrás [UJR-23]", "lat_2_Ubicacin": 9.23047, "long_2_Ubicacin": -83.30574, "accuracy_2_Ubicacin": 58, "UTM_Northing_2_Ubicacin": 1021150, "UTM_Easting_2_Ubicacin": 246664, "UTM_Zone_2_Ubicacin": "17P", "3_Nombre_de_Proyecto": "Brigada Dualgö", "4_Descripcin_de_proy": "Se realizaron compras de herramientas como: rastrillos forestales, pala forestal, cámaras trampas, mochilas, bombas de espalda.\n La brigada de incendios forestales inició en el 2017. Cuando deben enfrentar un incendio, cuentan con puntos de agua ya identificados para poder combatirlos. \nEl funcionamiento de la brigada se realiza ya que cuentan con una Comisión conformada por 25 personas. Los combates a los incendios se realizan valorando la extensión del incendio, se valora para deber a cuantas personas convocar ", "5_Inversin_CREF": 3700000, "6_Comunidad_TI": "Ujarrás", "7_Fecha_de_Inicio__F": "2025", "8_Desembolso_CREF": "II Desembolso CREF", "9_Bloque": "Pacífico Sur ", "10_Hora": "11:53:00", "11_Fecha_de_visita": "09/09/2026", "12_Colaboradora_o": "Ximena Matamoros Sandí", "13_Fotografa": "a9744aa4-9c7d-4ac0-a5c7-3c6e3f0c791f_1788976454.jpg" }, "geometry": { "type": "Point", "coordinates": [ -83.30574, 9.23047 ] } },
{ "type": "Feature", "properties": { "ec5_uuid": "b3c22969-2986-4de9-aea3-2eb5d8fa769e", "created_at": "2026-09-09T19:26:40Z", "uploaded_at": "2026-09-23T15:20:00Z", "created_by": "xmatamoros.xm@gmail.com", "title": "b3c22969-2986-4de9-aea3-2eb5d8fa769e", "1_Territorio_Indgena": "Ujarrás [UJR-23]", "lat_2_Ubicacin": 9.260194, "long_2_Ubicacin": -83.296005, "accuracy_2_Ubicacin": 5, "UTM_Northing_2_Ubicacin": 1024432, "UTM_Easting_2_Ubicacin": 247755, "UTM_Zone_2_Ubicacin": "17P", "3_Nombre_de_Proyecto": "Salón Comunal El Carmen", "4_Descripcin_de_proy": "Construcción de un Salón Comunal con capacidad de 120 pp, cuenta con 1 cocina y 1 plaza de fútbol", "5_Inversin_CREF": 16000000, "6_Comunidad_TI": "El Carmen", "7_Fecha_de_Inicio__F": "2025", "8_Desembolso_CREF": "II Desembolso CREF", "9_Bloque": "Pacífico Sur ", "10_Hora": "13:25:00", "11_Fecha_de_visita": "09/09/2026", "12_Colaboradora_o": "Ximena Matamoros Sandí", "13_Fotografa": "b3c22969-2986-4de9-aea3-2eb5d8fa769e_1788981995.jpg" }, "geometry": { "type": "Point", "coordinates": [ -83.296005, 9.260194 ] } },
{ "type": "Feature", "properties": { "ec5_uuid": "13816aca-9f22-48cb-94f1-d77481a08b10", "created_at": "2026-09-09T20:25:29Z", "uploaded_at": "2026-09-23T15:18:38Z", "created_by": "xmatamoros.xm@gmail.com", "title": "13816aca-9f22-48cb-94f1-d77481a08b10", "1_Territorio_Indgena": "Ujarrás [UJR-23]", "lat_2_Ubicacin": 9.28517, "long_2_Ubicacin": -83.321307, "accuracy_2_Ubicacin": 4, "UTM_Northing_2_Ubicacin": 1027213, "UTM_Easting_2_Ubicacin": 244992, "UTM_Zone_2_Ubicacin": "17P", "3_Nombre_de_Proyecto": "Construcción Escuela Duasklo", "4_Descripcin_de_proy": "Construcción de dos aulas y un baño \nCapacidad de matricula: 25 \nMatrícula actual: Tres estudiantes (2 primero y 1 tercero) \nHorario: 7:00 a 2:40 \n\nFundada en 2019", "5_Inversin_CREF": 12000000, "6_Comunidad_TI": "Santa Rosa", "7_Fecha_de_Inicio__F": "2025 ", "8_Desembolso_CREF": "II Desembolso CREF", "9_Bloque": "Pacífico Sur ", "10_Hora": "14:25:00", "11_Fecha_de_visita": "09/09/2026", "12_Colaboradora_o": "Ximena Matamoros Sandí", "13_Fotografa": "13816aca-9f22-48cb-94f1-d77481a08b10_1788985527.jpg" }, "geometry": { "type": "Point", "coordinates": [ -83.321307, 9.28517 ] } },
{ "type": "Feature", "properties": { "ec5_uuid": "6f409e5a-a94f-4760-9440-58906b6a2bc6", "created_at": "2026-09-09T21:17:43Z", "uploaded_at": "2026-09-23T15:19:22Z", "created_by": "xmatamoros.xm@gmail.com", "title": "6f409e5a-a94f-4760-9440-58906b6a2bc6", "1_Territorio_Indgena": "Ujarrás [UJR-23]", "lat_2_Ubicacin": 9.259967, "long_2_Ubicacin": -83.302262, "accuracy_2_Ubicacin": 24, "UTM_Northing_2_Ubicacin": 1024411, "UTM_Easting_2_Ubicacin": 247067, "UTM_Zone_2_Ubicacin": "17P", "3_Nombre_de_Proyecto": "Arreglo Camino de la comunidad de Santa Rosa", "4_Descripcin_de_proy": "Arreglo por 1km de distancia", "5_Inversin_CREF": 0, "6_Comunidad_TI": "San Vicente", "7_Fecha_de_Inicio__F": "2025", "8_Desembolso_CREF": "II Desembolso CREF", "9_Bloque": "Pacífico Sur ", "10_Hora": "15:17:00", "11_Fecha_de_visita": "09/09/2026", "12_Colaboradora_o": "Ximena Matamoros Sandí", "13_Fotografa": "6f409e5a-a94f-4760-9440-58906b6a2bc6_1788988661.jpg" }, "geometry": { "type": "Point", "coordinates": [ -83.302262, 9.259967 ] } },
{ "type": "Feature", "properties": { "ec5_uuid": "13f3d418-df55-47ef-b531-a9c20e13a1a3", "created_at": "2026-08-17T19:24:24Z", "uploaded_at": "2026-09-23T17:05:24Z", "created_by": "xmatamoros.xm@gmail.com", "title": "13f3d418-df55-47ef-b531-a9c20e13a1a3", "1_Territorio_Indgena": "Cabagra [CBG-07]", "lat_2_Ubicacin": 9.150338, "long_2_Ubicacin": -83.184912, "accuracy_2_Ubicacin": 3, "UTM_Northing_2_Ubicacin": 1012201, "UTM_Easting_2_Ubicacin": 259891, "UTM_Zone_2_Ubicacin": "17P", "3_Nombre_de_Proyecto": "Acueducto Pueblo Nuevo", "4_Descripcin_de_proy": "Construcción de tanque de captación de agua, con capacidad de 10.000L\nBeneficia a: 1 Escuela de kinder a 6to (50 estudiantes), 16 viviendas, 1 iglesia evangélica", "5_Inversin_CREF": 0, "6_Comunidad_TI": "Pueblo Nuevo", "7_Fecha_de_Inicio__F": "2026", "8_Desembolso_CREF": "II Desembolso CREF", "9_Bloque": "Pacífico Sur ", "10_Hora": "13:23:00", "11_Fecha_de_visita": "17/08/2026", "12_Colaboradora_o": "Ximena Matamoros Sandí", "13_Fotografa": "13f3d418-df55-47ef-b531-a9c20e13a1a3_1786994614.jpg" }, "geometry": { "type": "Point", "coordinates": [ -83.184912, 9.150338 ] } },
{ "type": "Feature", "properties": { "ec5_uuid": "0d51c738-4192-4b95-a719-35afb945d876", "created_at": "2026-08-17T19:57:12Z", "uploaded_at": "2026-09-23T17:04:41Z", "created_by": "xmatamoros.xm@gmail.com", "title": "0d51c738-4192-4b95-a719-35afb945d876", "1_Territorio_Indgena": "Cabagra [CBG-07]", "lat_2_Ubicacin": 9.15223, "long_2_Ubicacin": -83.195208, "accuracy_2_Ubicacin": 4, "UTM_Northing_2_Ubicacin": 1012417, "UTM_Easting_2_Ubicacin": 258761, "UTM_Zone_2_Ubicacin": "17P", "3_Nombre_de_Proyecto": "Acueducto San Juan", "4_Descripcin_de_proy": "Construcción de un taque de captación de 6x6 mt2 para la distribución de agua\nCapacidad: 62mil L\nBeneficio social: 150 familias (5-6pp)\n", "5_Inversin_CREF": 6000000, "6_Comunidad_TI": "San Juan de Cabagra", "7_Fecha_de_Inicio__F": "2026", "8_Desembolso_CREF": "II Desembolso CREF", "9_Bloque": "Pacífico Sur ", "10_Hora": "13:56:00", "11_Fecha_de_visita": "17/08/2026", "12_Colaboradora_o": "Ximena Matamoros Sandí", "13_Fotografa": "0d51c738-4192-4b95-a719-35afb945d876_1786996600.jpg" }, "geometry": { "type": "Point", "coordinates": [ -83.195208, 9.15223 ] } },
{ "type": "Feature", "properties": { "ec5_uuid": "cd3d0883-4e32-48b1-bb6b-79951b85a05c", "created_at": "2026-08-17T20:27:29Z", "uploaded_at": "2026-09-23T17:00:22Z", "created_by": "xmatamoros.xm@gmail.com", "title": "cd3d0883-4e32-48b1-bb6b-79951b85a05c", "1_Territorio_Indgena": "Cabagra [CBG-07]", "lat_2_Ubicacin": 9.166999, "long_2_Ubicacin": -83.170974, "accuracy_2_Ubicacin": 2, "UTM_Northing_2_Ubicacin": 1014035, "UTM_Easting_2_Ubicacin": 261435, "UTM_Zone_2_Ubicacin": "17P", "3_Nombre_de_Proyecto": "Puente Las Delicias", "4_Descripcin_de_proy": "Construcción Puente Las Delicias\nComunidad Las Delicias: \nCantidad de familias ubicadas en la zona: 40 familias \nEscuela 46 estudiantes\nPLAN REPARADOR ", "5_Inversin_CREF": 0, "6_Comunidad_TI": "Las Delicias", "7_Fecha_de_Inicio__F": "2026", "8_Desembolso_CREF": "I Desembolso CREF", "9_Bloque": "Pacífico Sur ", "10_Hora": "14:26:00", "11_Fecha_de_visita": "17/08/2026", "12_Colaboradora_o": "Ximena Matamoros Sandí", "13_Fotografa": "cd3d0883-4e32-48b1-bb6b-79951b85a05c_1786998432.jpg" }, "geometry": { "type": "Point", "coordinates": [ -83.170974, 9.166999 ] } },
{ "type": "Feature", "properties": { "ec5_uuid": "4d5e4889-a607-4b5e-a316-2f0f517bcf18", "created_at": "2026-08-17T23:03:16Z", "uploaded_at": "2026-09-23T16:55:33Z", "created_by": "xmatamoros.xm@gmail.com", "title": "4d5e4889-a607-4b5e-a316-2f0f517bcf18", "1_Territorio_Indgena": "Cabagra [CBG-07]", "lat_2_Ubicacin": 9.128903, "long_2_Ubicacin": -83.198885, "accuracy_2_Ubicacin": 5, "UTM_Northing_2_Ubicacin": 1009839, "UTM_Easting_2_Ubicacin": 258341, "UTM_Zone_2_Ubicacin": "17P", "3_Nombre_de_Proyecto": "Camino Alto Brazo de Oro", "4_Descripcin_de_proy": "Mejora de camino a Alto Brazo de Oro Alto \n2k de mejora de camino, colocación de lastre\nbenficio a 35 familias\ninstalacion de Electricidad \nDuración del proyecto:  2 semanas mejorando el camino \nse traslado el material desde Palmar Norte", "5_Inversin_CREF": 0, "6_Comunidad_TI": "Camino Alto Brazo de Oro", "7_Fecha_de_Inicio__F": "2025", "8_Desembolso_CREF": "II Desembolso CREF", "9_Bloque": "Pacífico Sur ", "10_Hora": "17:02:00", "11_Fecha_de_visita": "17/08/2026", "12_Colaboradora_o": "Ximena Matamoros Sandí", "13_Fotografa": "4d5e4889-a607-4b5e-a316-2f0f517bcf18_1787007790.jpg" }, "geometry": { "type": "Point", "coordinates": [ -83.198885, 9.128903 ] } },
{ "type": "Feature", "properties": { "ec5_uuid": "7c641481-08df-4a70-805d-b59e91c9a1e8", "created_at": "2026-08-18T15:20:37Z", "uploaded_at": "2026-09-23T16:54:50Z", "created_by": "xmatamoros.xm@gmail.com", "title": "7c641481-08df-4a70-805d-b59e91c9a1e8", "1_Territorio_Indgena": "Salitre [SLT-17]", "lat_2_Ubicacin": 9.200965, "long_2_Ubicacin": -83.264555, "accuracy_2_Ubicacin": 4, "UTM_Northing_2_Ubicacin": 1017857, "UTM_Easting_2_Ubicacin": 251170, "UTM_Zone_2_Ubicacin": "17P", "3_Nombre_de_Proyecto": "Construcción de rancho a Grupo de Mujeres", "4_Descripcin_de_proy": "Construcción de rancho a Apoyo a Grupo de Mujeres \nSe les gestionó la adquisición del terreno y la compra de materiales y construcción de rancho, desde el CREF I Desembolso\nEl grupo de Mujeres realiza actividades como: \n-Guarda Semillas \n-Mingas: se trata de acciones colaborativas entre mujeres, entendiéndose como una red de apoyo en el trabajo apoyo, ayuda mutua entre las mujeres. En el caso de que alguna mujer del grupo necesite apoyo en chapea, cosecha u otra actividad lo comunica al grupo y entre todas apoyan. \n-Este espacio se usa para ventas, reuniones, actividades relevantes para el grupo\n", "5_Inversin_CREF": 0, "6_Comunidad_TI": "Río Azul", "7_Fecha_de_Inicio__F": "2026", "8_Desembolso_CREF": "I Desembolso CREF", "9_Bloque": "Pacífico Sur ", "10_Hora": "09:19:00", "11_Fecha_de_visita": "18/08/2026", "12_Colaboradora_o": "Ximena Matamoros Sandí", "13_Fotografa": "7c641481-08df-4a70-805d-b59e91c9a1e8_1787066419.jpg" }, "geometry": { "type": "Point", "coordinates": [ -83.264555, 9.200965 ] } },
{ "type": "Feature", "properties": { "ec5_uuid": "adf4bf6c-8896-4786-9e34-d40ed5d1d6bc", "created_at": "2026-08-18T16:04:33Z", "uploaded_at": "2026-09-23T16:49:16Z", "created_by": "xmatamoros.xm@gmail.com", "title": "adf4bf6c-8896-4786-9e34-d40ed5d1d6bc", "1_Territorio_Indgena": "Salitre [SLT-17]", "lat_2_Ubicacin": 9.195521, "long_2_Ubicacin": -83.287301, "accuracy_2_Ubicacin": 4, "UTM_Northing_2_Ubicacin": 1017270, "UTM_Easting_2_Ubicacin": 248666, "UTM_Zone_2_Ubicacin": "17P", "3_Nombre_de_Proyecto": "Instalación de áreas recreativas en Escuela Akum", "4_Descripcin_de_proy": "Instalación de Parque de juegos en Escuela Aköm \nInstalación de Cancha de bascket y compra insumos educación física \nCaracterísticas de la Escuela \n-Unidocente\n-Matrícula: 7 estudiantes (4 preescolar y 3 primaria)", "5_Inversin_CREF": 0, "6_Comunidad_TI": "Ak", "7_Fecha_de_Inicio__F": "2026", "8_Desembolso_CREF": "I Desembolso CREF", "9_Bloque": "Pacífico Sur ", "10_Hora": "10:03:00", "11_Fecha_de_visita": "18/08/2026", "12_Colaboradora_o": "Ximena Matamoros Sandí", "13_Fotografa": "adf4bf6c-8896-4786-9e34-d40ed5d1d6bc_1787069068.jpg" }, "geometry": { "type": "Point", "coordinates": [ -83.287301, 9.195521 ] } },
{ "type": "Feature", "properties": { "ec5_uuid": "4ad176b9-d311-4b30-b5a0-22df0f4fc7be", "created_at": "2026-08-18T16:42:11Z", "uploaded_at": "2026-09-23T16:45:50Z", "created_by": "xmatamoros.xm@gmail.com", "title": "4ad176b9-d311-4b30-b5a0-22df0f4fc7be", "1_Territorio_Indgena": "Salitre [SLT-17]", "lat_2_Ubicacin": 9.198575, "long_2_Ubicacin": -83.295296, "accuracy_2_Ubicacin": 4, "UTM_Northing_2_Ubicacin": 1017614, "UTM_Easting_2_Ubicacin": 247789, "UTM_Zone_2_Ubicacin": "17P", "3_Nombre_de_Proyecto": "Emprendimiento Brödu", "4_Descripcin_de_proy": "Apoyo para emprendimiento turístico  \n-Zinc \n-Mano de obra\n-Lámparas\n-Colchones\nEmprendimiento tiene una Capacidad para recibir a 50 pp\n\nProyecto turístico brinda: alimentación, piscina, charlas culturales, hospedaje\nFinanciamientos adicionales: \n-Raíces apoyó en rancho y la piscina\n-PRONAE apoya en mejoras senderos\n", "5_Inversin_CREF": 0, "6_Comunidad_TI": "Yeri", "7_Fecha_de_Inicio__F": "2026", "8_Desembolso_CREF": "I Desembolso CREF", "9_Bloque": "Pacífico Sur ", "10_Hora": "10:40:00", "11_Fecha_de_visita": "18/08/2026", "12_Colaboradora_o": "Ximena Matamoros Sandí", "13_Fotografa": "4ad176b9-d311-4b30-b5a0-22df0f4fc7be_1787071328.jpg" }, "geometry": { "type": "Point", "coordinates": [ -83.295296, 9.198575 ] } },
{ "type": "Feature", "properties": { "ec5_uuid": "50939abe-d5f9-4554-8d80-5a9bc265ca22", "created_at": "2026-08-18T17:40:03Z", "uploaded_at": "2026-09-23T16:43:07Z", "created_by": "xmatamoros.xm@gmail.com", "title": "50939abe-d5f9-4554-8d80-5a9bc265ca22", "1_Territorio_Indgena": "Salitre [SLT-17]", "lat_2_Ubicacin": 9.187231, "long_2_Ubicacin": -83.305266, "accuracy_2_Ubicacin": 5, "UTM_Northing_2_Ubicacin": 1016365, "UTM_Easting_2_Ubicacin": 246685, "UTM_Zone_2_Ubicacin": "17P", "3_Nombre_de_Proyecto": "Plaza Comunal Salitre", "4_Descripcin_de_proy": "Mejoramiento de Plaza de Deportes, con la intalación de zacate natural\nImportancia comunitaria de la plaza: \n-Se realizan actividades deportivas y culturales\n-Capacidad de plaza: 500pp\nFuncionamiento: El Comité autoriza el uso y cobra 10.000crc  mas que todo por el uso del agua \nComité de Deportes está conformo por 8 personas", "5_Inversin_CREF": 0, "6_Comunidad_TI": "Salitre Centro", "7_Fecha_de_Inicio__F": "2025", "8_Desembolso_CREF": "I Desembolso CREF", "9_Bloque": "Pacífico Sur ", "10_Hora": "11:39:00", "11_Fecha_de_visita": "18/08/2026", "12_Colaboradora_o": "Ximena Matamoros Sandí", "13_Fotografa": "50939abe-d5f9-4554-8d80-5a9bc265ca22_1787074799.jpg" }, "geometry": { "type": "Point", "coordinates": [ -83.305266, 9.187231 ] } },
{ "type": "Feature", "properties": { "ec5_uuid": "2d28fd06-ea38-4f91-bf6a-b004a3c95b28", "created_at": "2026-08-19T14:39:31Z", "uploaded_at": "2026-09-23T16:40:54Z", "created_by": "xmatamoros.xm@gmail.com", "title": "2d28fd06-ea38-4f91-bf6a-b004a3c95b28", "1_Territorio_Indgena": "Rey Curré [RYC-16]", "lat_2_Ubicacin": 8.981563, "long_2_Ubicacin": -83.265883, "accuracy_2_Ubicacin": 3, "UTM_Northing_2_Ubicacin": 993583, "UTM_Easting_2_Ubicacin": 250872, "UTM_Zone_2_Ubicacin": "17P", "3_Nombre_de_Proyecto": "Remodelaciones menores Salón Comunal Curré", "4_Descripcin_de_proy": "Proyecto de mejoras a salón comunal de Curré \nRemodelación de pintura externa e interna \nColocación de alcantarillado \nReparación de baños", "5_Inversin_CREF": 0, "6_Comunidad_TI": "Curré", "7_Fecha_de_Inicio__F": "2025", "8_Desembolso_CREF": "I Desembolso CREF", "9_Bloque": "Pacífico Sur ", "10_Hora": "08:39:00", "11_Fecha_de_visita": "19/08/2026", "12_Colaboradora_o": "Ximena Matamoros Sandí", "13_Fotografa": "2d28fd06-ea38-4f91-bf6a-b004a3c95b28_1787150366.jpg" }, "geometry": { "type": "Point", "coordinates": [ -83.265883, 8.981563 ] } },
{ "type": "Feature", "properties": { "ec5_uuid": "8f162107-8e07-4c4c-9ae2-0cc9d86d3a0f", "created_at": "2026-08-19T15:04:05Z", "uploaded_at": "2026-09-23T16:34:21Z", "created_by": "xmatamoros.xm@gmail.com", "title": "8f162107-8e07-4c4c-9ae2-0cc9d86d3a0f", "1_Territorio_Indgena": "Rey Curré [RYC-16]", "lat_2_Ubicacin": 8.983334, "long_2_Ubicacin": -83.266359, "accuracy_2_Ubicacin": 4, "UTM_Northing_2_Ubicacin": 993779, "UTM_Easting_2_Ubicacin": 250821, "UTM_Zone_2_Ubicacin": "17P", "3_Nombre_de_Proyecto": "Apoyo a proyecto productivo", "4_Descripcin_de_proy": "Construcción de corral para gallinas ponedoras \n50 gallinas y 50 diarios", "5_Inversin_CREF": 150000, "6_Comunidad_TI": "Curré", "7_Fecha_de_Inicio__F": "2025", "8_Desembolso_CREF": "I Desembolso CREF", "9_Bloque": "Pacífico Sur ", "10_Hora": "09:03:00", "11_Fecha_de_visita": "19/08/2026", "12_Colaboradora_o": "Ximena Matamoros Sandí", "13_Fotografa": "8f162107-8e07-4c4c-9ae2-0cc9d86d3a0f_1787151839.jpg" }, "geometry": { "type": "Point", "coordinates": [ -83.266359, 8.983334 ] } },
{ "type": "Feature", "properties": { "ec5_uuid": "ceca7fde-8245-4389-81b8-ca2bfc65669e", "created_at": "2026-08-19T15:13:07Z", "uploaded_at": "2026-09-23T16:33:34Z", "created_by": "xmatamoros.xm@gmail.com", "title": "ceca7fde-8245-4389-81b8-ca2bfc65669e", "1_Territorio_Indgena": "Rey Curré [RYC-16]", "lat_2_Ubicacin": 8.98306, "long_2_Ubicacin": -83.26691, "accuracy_2_Ubicacin": 5, "UTM_Northing_2_Ubicacin": 993749, "UTM_Easting_2_Ubicacin": 250761, "UTM_Zone_2_Ubicacin": "17P", "3_Nombre_de_Proyecto": "Apoyo a actividades productivas", "4_Descripcin_de_proy": "\nApoyo a proyecto de artesanía de jícaras\nSe destinó el fondo a la compra de herramientas para artesanía de jicara", "5_Inversin_CREF": 150000, "6_Comunidad_TI": "Curré", "7_Fecha_de_Inicio__F": "2024", "8_Desembolso_CREF": "I Desembolso CREF", "9_Bloque": "Pacífico Sur ", "10_Hora": "09:12:00", "11_Fecha_de_visita": "19/08/2026", "12_Colaboradora_o": "Ximena Matamoros Sandí", "13_Fotografa": "ceca7fde-8245-4389-81b8-ca2bfc65669e_1787152383.jpg" }, "geometry": { "type": "Point", "coordinates": [ -83.26691, 8.98306 ] } },
{ "type": "Feature", "properties": { "ec5_uuid": "bd2c94eb-8ba7-4e3a-bee8-66e65f4a6c21", "created_at": "2026-08-19T15:33:58Z", "uploaded_at": "2026-09-23T16:32:55Z", "created_by": "xmatamoros.xm@gmail.com", "title": "bd2c94eb-8ba7-4e3a-bee8-66e65f4a6c21", "1_Territorio_Indgena": "Rey Curré [RYC-16]", "lat_2_Ubicacin": 8.984739, "long_2_Ubicacin": -83.277025, "accuracy_2_Ubicacin": 4, "UTM_Northing_2_Ubicacin": 993942, "UTM_Easting_2_Ubicacin": 249649, "UTM_Zone_2_Ubicacin": "17P", "3_Nombre_de_Proyecto": "Apoyo proyecto de emprendimiento", "4_Descripcin_de_proy": "Apoyo a compra de insumos barbería \nMaquinas de cortar cabello\nCuchilla\nMaquina\nEstimación de clientela: 15-20 clientes semanales", "5_Inversin_CREF": 150000, "6_Comunidad_TI": "Curré", "7_Fecha_de_Inicio__F": "2024", "8_Desembolso_CREF": "I Desembolso CREF", "9_Bloque": "Pacífico Sur ", "10_Hora": "09:30:00", "11_Fecha_de_visita": "19/08/2026", "12_Colaboradora_o": "Ximena Matamoros Sandí", "13_Fotografa": "bd2c94eb-8ba7-4e3a-bee8-66e65f4a6c21_1787153633.jpg" }, "geometry": { "type": "Point", "coordinates": [ -83.277025, 8.984739 ] } },
{ "type": "Feature", "properties": { "ec5_uuid": "27372d25-a5ec-4af0-a8c4-df3a6763685c", "created_at": "2026-08-19T15:45:46Z", "uploaded_at": "2026-09-23T16:14:28Z", "created_by": "xmatamoros.xm@gmail.com", "title": "27372d25-a5ec-4af0-a8c4-df3a6763685c", "1_Territorio_Indgena": "Rey Curré [RYC-16]", "lat_2_Ubicacin": 8.982887, "long_2_Ubicacin": -83.278501, "accuracy_2_Ubicacin": 7, "UTM_Northing_2_Ubicacin": 993738, "UTM_Easting_2_Ubicacin": 249485, "UTM_Zone_2_Ubicacin": "17P", "3_Nombre_de_Proyecto": "Proyecto reciclaje Curré", "4_Descripcin_de_proy": "Construcción de un Centro de acopio para separar material de reciclaje que se recoleta de las diferentes comunidades del TI\nEl proceso de entrega se realiza a una persona de Palmar Norte y esta persona solamente les reconoce monetariamente la entrega de latas, no de otros materiales \nFinanciamiento adicional:\n-PRONAE: se busca cerrar el espacio y colocar un portón en la entrada y cerrar las paredes la bodega", "5_Inversin_CREF": 0, "6_Comunidad_TI": "Curré", "7_Fecha_de_Inicio__F": "2024", "8_Desembolso_CREF": "I Desembolso CREF", "9_Bloque": "Pacífico Sur ", "10_Hora": "09:45:00", "11_Fecha_de_visita": "19/08/2026", "12_Colaboradora_o": "Ximena Matamoros Sandí", "13_Fotografa": "27372d25-a5ec-4af0-a8c4-df3a6763685c_1787154342.jpg" }, "geometry": { "type": "Point", "coordinates": [ -83.278501, 8.982887 ] } },
{ "type": "Feature", "properties": { "ec5_uuid": "a6f6f0bf-5064-4cd5-b979-e8592ed0473c", "created_at": "2026-08-19T15:56:40Z", "uploaded_at": "2026-09-23T16:06:38Z", "created_by": "xmatamoros.xm@gmail.com", "title": "a6f6f0bf-5064-4cd5-b979-e8592ed0473c", "1_Territorio_Indgena": "Rey Curré [RYC-16]", "lat_2_Ubicacin": 8.982611, "long_2_Ubicacin": -83.27844, "accuracy_2_Ubicacin": 4, "UTM_Northing_2_Ubicacin": 993707, "UTM_Easting_2_Ubicacin": 249492, "UTM_Zone_2_Ubicacin": "17P", "3_Nombre_de_Proyecto": "Vivero Forestal", "4_Descripcin_de_proy": "Se crea un espacio para el almacenamiento de árboles para reforestar\nAlmacenamiento: 10.000 arboles\nA la fecha de visita quedaba un saldo de 300 almácigos \nLas reforestaciones se realizaron en lagunas, nacientes.", "5_Inversin_CREF": 0, "6_Comunidad_TI": "Curré", "7_Fecha_de_Inicio__F": "2024", "8_Desembolso_CREF": "I Desembolso CREF", "9_Bloque": "Pacífico Sur ", "10_Hora": "09:56:00", "11_Fecha_de_visita": "19/08/2026", "12_Colaboradora_o": "Ximena Matamoros Sandí", "13_Fotografa": "a6f6f0bf-5064-4cd5-b979-e8592ed0473c_1787154992.jpg" }, "geometry": { "type": "Point", "coordinates": [ -83.27844, 8.982611 ] } },
{ "type": "Feature", "properties": { "ec5_uuid": "624b549e-6fd1-4298-913a-edad70092e03", "created_at": "2026-08-19T16:14:38Z", "uploaded_at": "2026-09-23T16:03:55Z", "created_by": "xmatamoros.xm@gmail.com", "title": "624b549e-6fd1-4298-913a-edad70092e03", "1_Territorio_Indgena": "Rey Curré [RYC-16]", "lat_2_Ubicacin": 8.988692, "long_2_Ubicacin": -83.286356, "accuracy_2_Ubicacin": 4, "UTM_Northing_2_Ubicacin": 994385, "UTM_Easting_2_Ubicacin": 248625, "UTM_Zone_2_Ubicacin": "17P", "3_Nombre_de_Proyecto": "Arreglo de camino Dutuj", "4_Descripcin_de_proy": "Arreglo de camino (trocha pequeña) para el traslado de especies para la reforestación de la naciente que abastece a Dutuj y parte de curré, así como la necesidad de mejorar las condiciones del sistema de distribución y abastecimiento de agua ", "5_Inversin_CREF": 0, "6_Comunidad_TI": "Dutuj", "7_Fecha_de_Inicio__F": "2024", "8_Desembolso_CREF": "I Desembolso CREF", "9_Bloque": "Pacífico Sur ", "10_Hora": "10:14:00", "11_Fecha_de_visita": "19/08/2026", "12_Colaboradora_o": "Ximena Matamoros Sandí", "13_Fotografa": "624b549e-6fd1-4298-913a-edad70092e03_1787156070.jpg" }, "geometry": { "type": "Point", "coordinates": [ -83.286356, 8.988692 ] } },
{ "type": "Feature", "properties": { "ec5_uuid": "9d62d3c1-82ab-45da-b924-9baa27ceb774", "created_at": "2026-08-19T16:44:24Z", "uploaded_at": "2026-09-23T15:59:22Z", "created_by": "xmatamoros.xm@gmail.com", "title": "9d62d3c1-82ab-45da-b924-9baa27ceb774", "1_Territorio_Indgena": "Rey Curré [RYC-16]", "lat_2_Ubicacin": 8.987824, "long_2_Ubicacin": -83.284124, "accuracy_2_Ubicacin": 4, "UTM_Northing_2_Ubicacin": 994288, "UTM_Easting_2_Ubicacin": 248870, "UTM_Zone_2_Ubicacin": "17P", "3_Nombre_de_Proyecto": "Reforestación de Laguna", "4_Descripcin_de_proy": "Reforestación realizada en la laguna de la comunidad de Dutuj, con mano de obra de las propias personas beneficiarias de los proyectos productivos \nPlantación de 300 arboles", "5_Inversin_CREF": 0, "6_Comunidad_TI": "Duju", "7_Fecha_de_Inicio__F": "2024", "8_Desembolso_CREF": "I Desembolso CREF", "9_Bloque": "Pacífico Sur ", "10_Hora": "10:21:00", "11_Fecha_de_visita": "19/08/2026", "12_Colaboradora_o": "Ximena Matamoros Sandí", "13_Fotografa": "9d62d3c1-82ab-45da-b924-9baa27ceb774_1787156538.jpg" }, "geometry": { "type": "Point", "coordinates": [ -83.284124, 8.987824 ] } },
{ "type": "Feature", "properties": { "ec5_uuid": "0ac837bc-3f77-40b7-ba19-61e13c130859", "created_at": "2026-08-19T16:47:55Z", "uploaded_at": "2026-09-23T15:58:27Z", "created_by": "xmatamoros.xm@gmail.com", "title": "0ac837bc-3f77-40b7-ba19-61e13c130859", "1_Territorio_Indgena": "Rey Curré [RYC-16]", "lat_2_Ubicacin": 8.980979, "long_2_Ubicacin": -83.267694, "accuracy_2_Ubicacin": 8, "UTM_Northing_2_Ubicacin": 993519, "UTM_Easting_2_Ubicacin": 250673, "UTM_Zone_2_Ubicacin": "17P", "3_Nombre_de_Proyecto": "Apoyo productivo de artesanía", "4_Descripcin_de_proy": "Mejora de infraestructura para la realizaciónn de tejido de hamacas\nEl desarrollo del proyecto es llevado acabo por parte de una mayora del TI\n", "5_Inversin_CREF": 0, "6_Comunidad_TI": "Curré", "7_Fecha_de_Inicio__F": "2024", "8_Desembolso_CREF": "I Desembolso CREF", "9_Bloque": "Pacífico Sur ", "10_Hora": "10:46:00", "11_Fecha_de_visita": "19/08/2026", "12_Colaboradora_o": "Ximena Matamoros Sandí", "13_Fotografa": "0ac837bc-3f77-40b7-ba19-61e13c130859_1787158060.jpg" }, "geometry": { "type": "Point", "coordinates": [ -83.267694, 8.980979 ] } },
{ "type": "Feature", "properties": { "ec5_uuid": "fed5e620-39a7-4056-ad19-640800dae492", "created_at": "2026-08-17T18:52:34Z", "uploaded_at": "2026-09-23T17:10:52Z", "created_by": "xmatamoros.xm@gmail.com", "title": "fed5e620-39a7-4056-ad19-640800dae492", "1_Territorio_Indgena": "Cabagra [CBG-07]", "lat_2_Ubicacin": 9.134907, "long_2_Ubicacin": -83.194233, "accuracy_2_Ubicacin": 5, "UTM_Northing_2_Ubicacin": 1010500, "UTM_Easting_2_Ubicacin": 258856, "UTM_Zone_2_Ubicacin": "17P", "3_Nombre_de_Proyecto": "Puente Quebrada Bitá Diköl ", "4_Descripcin_de_proy": "Construcción de Puente Quebrada Bitá Diköl en la Comunidad de Las Palmas\n", "5_Inversin_CREF": 0, "6_Comunidad_TI": "Cabagra", "7_Fecha_de_Inicio__F": "2026", "8_Desembolso_CREF": "II Desembolso CREF", "9_Bloque": "Pacífico Sur ", "10_Hora": "12:52:00", "11_Fecha_de_visita": "17/08/2026", "12_Colaboradora_o": "Ximena Matamoros Sandí", "13_Fotografa": "fed5e620-39a7-4056-ad19-640800dae492_1786992741.jpg" }, "geometry": { "type": "Point", "coordinates": [ -83.194233, 9.134907 ] } },
{ "type": "Feature", "properties": { "ec5_uuid": "6a7c268e-f569-40a0-bc83-bbd9df1d2d15", "created_at": "2026-08-17T18:59:12Z", "uploaded_at": "2026-09-23T17:10:02Z", "created_by": "xmatamoros.xm@gmail.com", "title": "6a7c268e-f569-40a0-bc83-bbd9df1d2d15", "1_Territorio_Indgena": "Cabagra [CBG-07]", "lat_2_Ubicacin": 9.134463, "long_2_Ubicacin": -83.19403, "accuracy_2_Ubicacin": 3, "UTM_Northing_2_Ubicacin": 1010451, "UTM_Easting_2_Ubicacin": 258878, "UTM_Zone_2_Ubicacin": "17P", "3_Nombre_de_Proyecto": "Centro de Supervisión de Educación", "4_Descripcin_de_proy": "Construcción del Centro de supervisión educativa \nFunciones: Se reúnen los/las directores de los centros educativos para la preparación de documentación necesaria en relación a sus funciones\nTerreno: El terreno era de la ADI, se realizó un convenio entre la Supervisión y la ADI para su uso \nSupervisión Territorial:  se supervisa a 19 centros educativos, los cuales integran a más de 280 educadores \nCaracterísticas del Centro: sala de sesiones, internet, cocina \nFinanciamiento: \nCREF: financió la comitiva eléctrica e infraestructura \nMEP: financió el inmobiliarias y cancela los servicios básicos de electricidad", "5_Inversin_CREF": 0, "6_Comunidad_TI": "Cabagra", "7_Fecha_de_Inicio__F": "2026", "8_Desembolso_CREF": "II Desembolso CREF", "9_Bloque": "Pacífico Sur ", "10_Hora": "12:56:00", "11_Fecha_de_visita": "17/08/2026", "12_Colaboradora_o": "Ximena Matamoros Sandí", "13_Fotografa": "6a7c268e-f569-40a0-bc83-bbd9df1d2d15_1786993026.jpg" }, "geometry": { "type": "Point", "coordinates": [ -83.19403, 9.134463 ] } },
{ "type": "Feature", "properties": { "ec5_uuid": "51b0b019-3341-4305-9427-3632b04a9185", "created_at": "2026-07-08T15:49:34Z", "uploaded_at": "2026-09-23T17:17:26Z", "created_by": "xmatamoros.xm@gmail.com", "title": "51b0b019-3341-4305-9427-3632b04a9185", "1_Territorio_Indgena": "Alto Chirripó [AC-02]", "lat_2_Ubicacin": 9.804909, "long_2_Ubicacin": -83.39441, "accuracy_2_Ubicacin": 5, "UTM_Northing_2_Ubicacin": 1084777, "UTM_Easting_2_Ubicacin": 237355, "UTM_Zone_2_Ubicacin": "17P", "3_Nombre_de_Proyecto": "Camino Alto Elefante", "4_Descripcin_de_proy": "Mejoramiento de camino en una distancia de 9k (aproximadamente) \nComunidades beneficiadas: Alto Elefante hasta Quebrada JonamarÍ \n", "5_Inversin_CREF": 0, "6_Comunidad_TI": "Alto Elefante", "7_Fecha_de_Inicio__F": "2025", "8_Desembolso_CREF": "I Desembolso CREF", "9_Bloque": "Caribe", "10_Hora": "09:47:00", "11_Fecha_de_visita": "08/07/2026", "12_Colaboradora_o": "Ximena Matamoros Sandí", "13_Fotografa": "51b0b019-3341-4305-9427-3632b04a9185_1783525758.jpg" }, "geometry": { "type": "Point", "coordinates": [ -83.39441, 9.804909 ] } },
{ "type": "Feature", "properties": { "ec5_uuid": "4ca823e7-7d0f-4f86-9015-cbcf5099661b", "created_at": "2026-07-08T16:11:45Z", "uploaded_at": "2026-09-23T17:14:38Z", "created_by": "xmatamoros.xm@gmail.com", "title": "4ca823e7-7d0f-4f86-9015-cbcf5099661b", "1_Territorio_Indgena": "Alto Chirripó [AC-02]", "lat_2_Ubicacin": 9.789906, "long_2_Ubicacin": -83.364073, "accuracy_2_Ubicacin": 5, "UTM_Northing_2_Ubicacin": 1083093, "UTM_Easting_2_Ubicacin": 240673, "UTM_Zone_2_Ubicacin": "17P", "3_Nombre_de_Proyecto": "Puente Peatonal Roca Quemada", "4_Descripcin_de_proy": "Mejoramiento de infraestructura de los cables de tensión del puente de la comunidad de Roca Quemada \nEl puente peatonal conecta 11 comunidades\nFuncionamiento de la contratación: se da por medio de una contratación a una persona externa del TI\nPlanificación de la obra:\nLas comisiones planifican el paso de las personas colocaron rótulos con horarios de paso\nInició: lunes 23 junio\nFinalización aprox 23 julio", "5_Inversin_CREF": 9000000, "6_Comunidad_TI": "Roca Quemada", "7_Fecha_de_Inicio__F": "2026", "8_Desembolso_CREF": "I Desembolso CREF", "9_Bloque": "Caribe", "10_Hora": "10:08:00", "11_Fecha_de_visita": "08/07/2026", "12_Colaboradora_o": "Ximena Matamoros Sandí", "13_Fotografa": "4ca823e7-7d0f-4f86-9015-cbcf5099661b_1783527098.jpg" }, "geometry": { "type": "Point", "coordinates": [ -83.364073, 9.789906 ] } },
{ "type": "Feature", "properties": { "ec5_uuid": "3c98133d-cf44-4f1e-93d7-143859cf76bd", "created_at": "2026-06-25T19:16:21Z", "uploaded_at": "2026-09-23T19:30:37Z", "created_by": "xmatamoros.xm@gmail.com", "title": "3c98133d-cf44-4f1e-93d7-143859cf76bd", "1_Territorio_Indgena": "Alto Laguna de Osa [ALO-03]", "lat_2_Ubicacin": 8.605664, "long_2_Ubicacin": -83.498581, "accuracy_2_Ubicacin": 5, "UTM_Northing_2_Ubicacin": 952153, "UTM_Easting_2_Ubicacin": 224996, "UTM_Zone_2_Ubicacin": "17P", "3_Nombre_de_Proyecto": "Manejo de residuos", "4_Descripcin_de_proy": "n/d", "5_Inversin_CREF": 0, "6_Comunidad_TI": "No se conoce", "7_Fecha_de_Inicio__F": "n/d", "8_Desembolso_CREF": "I Desembolso CREF", "9_Bloque": "Ngöbe", "10_Hora": "13:15:00", "11_Fecha_de_visita": "25/06/2026", "12_Colaboradora_o": "Ximena Matamoros Sandí", "13_Fotografa": "3c98133d-cf44-4f1e-93d7-143859cf76bd_1782414978.jpg" }, "geometry": { "type": "Point", "coordinates": [ -83.498581, 8.605664 ] } },
{ "type": "Feature", "properties": { "ec5_uuid": "af822b0f-189c-40d9-bf37-f62088952e43", "created_at": "2026-06-25T18:29:07Z", "uploaded_at": "2026-09-23T19:32:32Z", "created_by": "xmatamoros.xm@gmail.com", "title": "af822b0f-189c-40d9-bf37-f62088952e43", "1_Territorio_Indgena": "Alto Laguna de Osa [ALO-03]", "lat_2_Ubicacin": 8.60666, "long_2_Ubicacin": -83.511329, "accuracy_2_Ubicacin": 5, "UTM_Northing_2_Ubicacin": 952273, "UTM_Easting_2_Ubicacin": 223592, "UTM_Zone_2_Ubicacin": "17P", "3_Nombre_de_Proyecto": "Proyecto de Turismo Oro Verde", "4_Descripcin_de_proy": "Apoyo a proyecto para la compra de: \n-utensilios para la cocina\n-equipamiento para la asociación\nSe recibe al año un aprox de 150 pp\nSe inició en 2023 \nNacionalidades visitantes: US, CR, Francia, Suiza\nLa visión es llevarlo a encadenar con otros servicios: alimentación, pozas, senderos \n50% de los productos de uso para los servicios son locales del TI", "5_Inversin_CREF": 0, "6_Comunidad_TI": "Alto Laguna", "7_Fecha_de_Inicio__F": "2026", "8_Desembolso_CREF": "I Desembolso CREF", "9_Bloque": "Ngöbe", "10_Hora": "12:15:00", "11_Fecha_de_visita": "25/06/2026", "12_Colaboradora_o": "Ximena Matamoros Sandí", "13_Fotografa": "af822b0f-189c-40d9-bf37-f62088952e43_1782412119.jpg" }, "geometry": { "type": "Point", "coordinates": [ -83.511329, 8.60666 ] } },
{ "type": "Feature", "properties": { "ec5_uuid": "4e330d89-7f45-48a1-83a1-beae02bdfdce", "created_at": "2026-06-25T18:00:13Z", "uploaded_at": "2026-09-23T19:34:43Z", "created_by": "xmatamoros.xm@gmail.com", "title": "4e330d89-7f45-48a1-83a1-beae02bdfdce", "1_Territorio_Indgena": "Alto Laguna de Osa [ALO-03]", "lat_2_Ubicacin": 8.608623, "long_2_Ubicacin": -83.514724, "accuracy_2_Ubicacin": 5, "UTM_Northing_2_Ubicacin": 952492, "UTM_Easting_2_Ubicacin": 223220, "UTM_Zone_2_Ubicacin": "17P", "3_Nombre_de_Proyecto": "Proyecto Casa de la Mujer", "4_Descripcin_de_proy": "Construcción de insfraestructura Casa de La Mujer \nEn este espacio se proyecta la realización de antividades como: }\n-Actividades culturales\n-Áreas de capacitación \n-Salas de exhibición y creación de artesanías\nAlianza: se realizó una alianza con la Universidad de Costa Rica para poder desarrollar el diseño ", "5_Inversin_CREF": 0, "6_Comunidad_TI": "Alto Laguna", "7_Fecha_de_Inicio__F": "n/d", "8_Desembolso_CREF": "I Desembolso CREF", "9_Bloque": "Ngöbe", "10_Hora": "11:52:00", "11_Fecha_de_visita": "25/06/2026", "12_Colaboradora_o": "Ximena Matamoros Sandí", "13_Fotografa": "4e330d89-7f45-48a1-83a1-beae02bdfdce_1782410378.jpg" }, "geometry": { "type": "Point", "coordinates": [ -83.514724, 8.608623 ] } },
{ "type": "Feature", "properties": { "ec5_uuid": "0a6f6425-fe2e-4dff-957a-e3d0df414061", "created_at": "2026-06-25T17:32:54Z", "uploaded_at": "2026-09-23T19:41:11Z", "created_by": "xmatamoros.xm@gmail.com", "title": "0a6f6425-fe2e-4dff-957a-e3d0df414061", "1_Territorio_Indgena": "Alto Laguna de Osa [ALO-03]", "lat_2_Ubicacin": 8.617093, "long_2_Ubicacin": -83.53483, "accuracy_2_Ubicacin": 5, "UTM_Northing_2_Ubicacin": 953444, "UTM_Easting_2_Ubicacin": 221012, "UTM_Zone_2_Ubicacin": "17P", "3_Nombre_de_Proyecto": "Proyecto de Turismo Tamandú", "4_Descripcin_de_proy": "El proyecto turísico es uno de los proyectos mas longevos del TI inció en el 2001, cuenta con un establecimiento de hospedaje, brinda la posibilidad de disfrutar de actividades culturales. \nTiene una capacidad de 6 pp para hospedarse\nApoyo brindado: zinc, pintura y colchones", "5_Inversin_CREF": 0, "6_Comunidad_TI": "Tamandú", "7_Fecha_de_Inicio__F": "n/d", "8_Desembolso_CREF": "I Desembolso CREF", "9_Bloque": "Ngöbe", "10_Hora": "11:30:00", "11_Fecha_de_visita": "25/06/2026", "12_Colaboradora_o": "Ximena Matamoros Sandí", "13_Fotografa": "0a6f6425-fe2e-4dff-957a-e3d0df414061_1782408769.jpg" }, "geometry": { "type": "Point", "coordinates": [ -83.53483, 8.617093 ] } },
{ "type": "Feature", "properties": { "ec5_uuid": "273acdaa-2920-4333-bda8-fbc106f85079", "created_at": "2026-06-25T17:13:05Z", "uploaded_at": "2026-09-23T19:43:51Z", "created_by": "xmatamoros.xm@gmail.com", "title": "273acdaa-2920-4333-bda8-fbc106f85079", "1_Territorio_Indgena": "Alto Laguna de Osa [ALO-03]", "lat_2_Ubicacin": 8.611669, "long_2_Ubicacin": -83.524589, "accuracy_2_Ubicacin": 4, "UTM_Northing_2_Ubicacin": 952836, "UTM_Easting_2_Ubicacin": 222136, "UTM_Zone_2_Ubicacin": "17P", "3_Nombre_de_Proyecto": "Finca Krwa (Tigre)", "4_Descripcin_de_proy": "Emprendimiento de Turismo \nApoyo brindado: \n-compra de tubos para trasladar agua potable\n-material para piso \nEl proyecto se desarrolla en una finca la cual cuenta con catarata, río, senderos para tours de día y noche\nServicios: Camping, alimentación y guías locales", "5_Inversin_CREF": 0, "6_Comunidad_TI": "Alto Laguna", "7_Fecha_de_Inicio__F": "n/d", "8_Desembolso_CREF": "I Desembolso CREF", "9_Bloque": "Ngöbe", "10_Hora": "11:08:00", "11_Fecha_de_visita": "25/06/2026", "12_Colaboradora_o": "Ximena Matamoros Sandí", "13_Fotografa": null }, "geometry": { "type": "Point", "coordinates": [ -83.524589, 8.611669 ] } },
{ "type": "Feature", "properties": { "ec5_uuid": "de0baf5e-8713-4bd4-ac42-66c04800dca1", "created_at": "2026-06-25T16:51:14Z", "uploaded_at": "2026-09-23T19:46:32Z", "created_by": "xmatamoros.xm@gmail.com", "title": "de0baf5e-8713-4bd4-ac42-66c04800dca1", "1_Territorio_Indgena": "Alto Laguna de Osa [ALO-03]", "lat_2_Ubicacin": 8.611156, "long_2_Ubicacin": -83.522664, "accuracy_2_Ubicacin": 4, "UTM_Northing_2_Ubicacin": 952778, "UTM_Easting_2_Ubicacin": 222347, "UTM_Zone_2_Ubicacin": "17P", "3_Nombre_de_Proyecto": "Proyecto de Turismo Jemengo ", "4_Descripcin_de_proy": "Proyecto de Turismo sostenible \nApoyo brindado para compra de: aleros, pintura para techo, materiales para piso, mejoramiento de ducha y sanitario", "5_Inversin_CREF": 0, "6_Comunidad_TI": "Alto Laguna", "7_Fecha_de_Inicio__F": "2025", "8_Desembolso_CREF": "I Desembolso CREF", "9_Bloque": "Ngöbe", "10_Hora": "10:48:00", "11_Fecha_de_visita": "25/06/2026", "12_Colaboradora_o": "Ximena Matamoros Sandí", "13_Fotografa": "de0baf5e-8713-4bd4-ac42-66c04800dca1_1782406257.jpg" }, "geometry": { "type": "Point", "coordinates": [ -83.522664, 8.611156 ] } },
{ "type": "Feature", "properties": { "ec5_uuid": "dda982a9-e78b-49f5-9cf6-f2c710c911f5", "created_at": "2026-06-24T19:03:02Z", "uploaded_at": "2026-09-23T19:50:56Z", "created_by": "xmatamoros.xm@gmail.com", "title": "dda982a9-e78b-49f5-9cf6-f2c710c911f5", "1_Territorio_Indgena": "Coto Brus [CTB-10]", "lat_2_Ubicacin": 8.839143, "long_2_Ubicacin": -83.072599, "accuracy_2_Ubicacin": 5, "UTM_Northing_2_Ubicacin": 977702, "UTM_Easting_2_Ubicacin": 272044, "UTM_Zone_2_Ubicacin": "17P", "3_Nombre_de_Proyecto": "Proyecto Restauración de La Casona", "4_Descripcin_de_proy": "El proyecto de restauración de La Casona busca mejorar y trasladar la infraestructura a un espacio disponible en la Escuela Pública del TI.\nLa Casona es un monumento histórico para el TI. Se trata de la primera casa del TI, un espacio que ayudó a forjar los inicios del asentamiento del TI, históricamente ha sido usado para como sitio de reunión, espacio para velar de personas, uso del cacique y de gran importancia para el TI.", "5_Inversin_CREF": 0, "6_Comunidad_TI": "La Casona", "7_Fecha_de_Inicio__F": "2026", "8_Desembolso_CREF": "I Desembolso CREF", "9_Bloque": "Ngöbe", "10_Hora": "13:00:00", "11_Fecha_de_visita": "24/06/2026", "12_Colaboradora_o": "Ximena Matamoros Sandí", "13_Fotografa": "dda982a9-e78b-49f5-9cf6-f2c710c911f5_1782327769.jpg" }, "geometry": { "type": "Point", "coordinates": [ -83.072599, 8.839143 ] } },
{ "type": "Feature", "properties": { "ec5_uuid": "e6b615ad-7415-4364-98a5-855930140320", "created_at": "2026-06-24T18:29:42Z", "uploaded_at": "2026-09-23T19:59:39Z", "created_by": "xmatamoros.xm@gmail.com", "title": "e6b615ad-7415-4364-98a5-855930140320", "1_Territorio_Indgena": "Coto Brus [CTB-10]", "lat_2_Ubicacin": 8.830813, "long_2_Ubicacin": -83.080542, "accuracy_2_Ubicacin": 23, "UTM_Northing_2_Ubicacin": 976785, "UTM_Easting_2_Ubicacin": 271165, "UTM_Zone_2_Ubicacin": "17P", "3_Nombre_de_Proyecto": "CasaTradicional de Parteras", "4_Descripcin_de_proy": "La Casa de las Parteras es un espacio donde se realizan partos de forma tradicional, las mujeres en el TI suelen realizar los partes implementando prácticas ancestrales.\nApoyo brindado:  compra de materiales para la construcción, 6 cuartos, 1 cocina, baño", "5_Inversin_CREF": 0, "6_Comunidad_TI": "La Pita", "7_Fecha_de_Inicio__F": "2025", "8_Desembolso_CREF": "I Desembolso CREF", "9_Bloque": "Ngöbe", "10_Hora": "12:25:00", "11_Fecha_de_visita": "24/06/2026", "12_Colaboradora_o": "Ximena Matamoros Sandí", "13_Fotografa": "e6b615ad-7415-4364-98a5-855930140320_1782325640.jpg" }, "geometry": { "type": "Point", "coordinates": [ -83.080542, 8.830813 ] } },
{ "type": "Feature", "properties": { "ec5_uuid": "3ca4138f-82b9-4f8d-9474-1095fb3bb919", "created_at": "2026-06-24T17:33:15Z", "uploaded_at": "2026-09-23T20:09:52Z", "created_by": "xmatamoros.xm@gmail.com", "title": "3ca4138f-82b9-4f8d-9474-1095fb3bb919", "1_Territorio_Indgena": "Coto Brus [CTB-10]", "lat_2_Ubicacin": 8.835615, "long_2_Ubicacin": -83.076671, "accuracy_2_Ubicacin": 5, "UTM_Northing_2_Ubicacin": 977314, "UTM_Easting_2_Ubicacin": 271594, "UTM_Zone_2_Ubicacin": "17P", "3_Nombre_de_Proyecto": "Proyecto Emprendimiento Soda Pachula ", "4_Descripcin_de_proy": "Proyecto Emprendimiento Soda Pachula \nApoyo brindado: compra de materiales para la ampliación de salón con el fin de para aumentar la cantidad de personas que atienden: instituciones, Universidades, turistas, asada, estudiantes, MEP\nExisten ", "5_Inversin_CREF": 0, "6_Comunidad_TI": "La Casona", "7_Fecha_de_Inicio__F": "2025", "8_Desembolso_CREF": "I Desembolso CREF", "9_Bloque": "Ngöbe", "10_Hora": "11:29:00", "11_Fecha_de_visita": "24/06/2026", "12_Colaboradora_o": "Ximena Matamoros Sandí", "13_Fotografa": "3ca4138f-82b9-4f8d-9474-1095fb3bb919_1782322305.jpg" }, "geometry": { "type": "Point", "coordinates": [ -83.076671, 8.835615 ] } },
{ "type": "Feature", "properties": { "ec5_uuid": "ac6c8ef3-6c80-4af4-bdf2-2947754ec199", "created_at": "2026-05-28T20:07:45Z", "uploaded_at": "2026-09-23T20:11:56Z", "created_by": "xmatamoros.xm@gmail.com", "title": "ac6c8ef3-6c80-4af4-bdf2-2947754ec199", "1_Territorio_Indgena": "Maleku [MKU-12]", "lat_2_Ubicacin": 10.663647, "long_2_Ubicacin": -84.796817, "accuracy_2_Ubicacin": 5, "UTM_Northing_2_Ubicacin": 1179646, "UTM_Easting_2_Ubicacin": 741008, "UTM_Zone_2_Ubicacin": "16P", "3_Nombre_de_Proyecto": "Proyecto Turístico Caroqui Ú", "4_Descripcin_de_proy": "Proyecto Turístico Caroqui Ú\nApoyo brindado: compra de insumos para restaurante\n-platos\n-vasos\n-pichel \n-escobas", "5_Inversin_CREF": 0, "6_Comunidad_TI": "Palenque El sol", "7_Fecha_de_Inicio__F": "2025", "8_Desembolso_CREF": "I Desembolso CREF", "9_Bloque": "Central Norte ", "10_Hora": "14:04:00", "11_Fecha_de_visita": "28/05/2026", "12_Colaboradora_o": "Ximena Matamoros Sandí", "13_Fotografa": "ac6c8ef3-6c80-4af4-bdf2-2947754ec199_1779998858.jpg" }, "geometry": { "type": "Point", "coordinates": [ -84.796817, 10.663647 ] } },
{ "type": "Feature", "properties": { "ec5_uuid": "9ed3b1b1-3010-465b-8713-b9d938753ca8", "created_at": "2026-05-28T19:32:31Z", "uploaded_at": "2026-09-23T20:20:05Z", "created_by": "xmatamoros.xm@gmail.com", "title": "9ed3b1b1-3010-465b-8713-b9d938753ca8", "1_Territorio_Indgena": "Maleku [MKU-12]", "lat_2_Ubicacin": 10.659081, "long_2_Ubicacin": -84.795484, "accuracy_2_Ubicacin": 4, "UTM_Northing_2_Ubicacin": 1179142, "UTM_Easting_2_Ubicacin": 741158, "UTM_Zone_2_Ubicacin": "16P", "3_Nombre_de_Proyecto": "Proyecto Turisico Lacá Maleku ", "4_Descripcin_de_proy": "Proyecto turístico Lacá Maleku \nApoyo brindado: zarán para suitas\nLa iniciativa busca recuperar la suita, una palma de lento crecimiento tradicionalmente utilizada por el pueblo Maleku en la construcción de techos y ranchos. Su disminución, asociada al uso de láminas de zinc, ha contribuido a la pérdida de una práctica vinculada con la identidad y cosmovisión Maleku. Además, la suita posee un importante valor cultural y espiritual, pues forma parte de ceremonias funerarias ancestrales, en las que sus hojas se utilizan para preparar el espacio donde se deposita el cuerpo de la persona fallecida.", "5_Inversin_CREF": 0, "6_Comunidad_TI": "Palenque El Sol", "7_Fecha_de_Inicio__F": "2024", "8_Desembolso_CREF": "I Desembolso CREF", "9_Bloque": "Central Norte ", "10_Hora": "13:29:00", "11_Fecha_de_visita": "28/05/2026", "12_Colaboradora_o": "Ximena Matamoros Sandí", "13_Fotografa": "9ed3b1b1-3010-465b-8713-b9d938753ca8_1779996745.jpg" }, "geometry": { "type": "Point", "coordinates": [ -84.795484, 10.659081 ] } },
{ "type": "Feature", "properties": { "ec5_uuid": "377025aa-08e4-44c0-ae16-a901415e517a", "created_at": "2026-03-10T21:09:16Z", "uploaded_at": "2026-09-23T20:23:35Z", "created_by": "xmatamoros.xm@gmail.com", "title": "377025aa-08e4-44c0-ae16-a901415e517a", "1_Territorio_Indgena": "Abrojo Montezuma [ABM-01]", "lat_2_Ubicacin": 8.671394, "long_2_Ubicacin": -82.878283, "accuracy_2_Ubicacin": 6, "UTM_Northing_2_Ubicacin": 959033, "UTM_Easting_2_Ubicacin": 293331, "UTM_Zone_2_Ubicacin": "17P", "3_Nombre_de_Proyecto": "Proyecto Tanque de Captación de la Naciente Bella Vista", "4_Descripcin_de_proy": "Proyecto Tanque de Captación de la Naciente Bella Vista\nConstrucción de un tanque de captación en la naciente Bella Vista \nTrabajos realizados: \nConstrucción del tanque\nColocación de sistema de distribución hacia los tanques de distribución (la distribución se realiza por gravedad)\nAlianzas: \nPRONAE: contratación deaprox 16 personas de las cuales 7 fueron mujeres contratadas \nBeneficio social: 70 familias aprox \nTiempo de construcción 3 meses", "5_Inversin_CREF": 11000000, "6_Comunidad_TI": "Bella Vista", "7_Fecha_de_Inicio__F": "2025", "8_Desembolso_CREF": "I Desembolso CREF", "9_Bloque": "Ngöbe", "10_Hora": "16:03:00", "11_Fecha_de_visita": "10/03/2026", "12_Colaboradora_o": "Ximena Matamoros Sandí", "13_Fotografa": "377025aa-08e4-44c0-ae16-a901415e517a_1773176950.jpg" }, "geometry": { "type": "Point", "coordinates": [ -82.878283, 8.671394 ] } },
{ "type": "Feature", "properties": { "ec5_uuid": "a42e7f04-cc1e-4228-aacc-fc69bfc1fb97", "created_at": "2026-03-10T20:43:50Z", "uploaded_at": "2026-09-23T20:26:51Z", "created_by": "xmatamoros.xm@gmail.com", "title": "a42e7f04-cc1e-4228-aacc-fc69bfc1fb97", "1_Territorio_Indgena": "Abrojo Montezuma [ABM-01]", "lat_2_Ubicacin": 8.665569, "long_2_Ubicacin": -82.871508, "accuracy_2_Ubicacin": 2, "UTM_Northing_2_Ubicacin": 958385, "UTM_Easting_2_Ubicacin": 294074, "UTM_Zone_2_Ubicacin": "17P", "3_Nombre_de_Proyecto": "Proyecto Acueducto de Montezuma ", "4_Descripcin_de_proy": "Proyecto de mejorar a Acueducto de Montezuma\nBeneficios sociales: \n-Familias 160 familias \n-Instituciones: Escuela, Colegio\n\n", "5_Inversin_CREF": 3000000, "6_Comunidad_TI": "Bella Vista", "7_Fecha_de_Inicio__F": "2026", "8_Desembolso_CREF": "I Desembolso CREF", "9_Bloque": "Ngöbe", "10_Hora": "14:40:00", "11_Fecha_de_visita": "10/03/2026", "12_Colaboradora_o": "Ximena Matamoros Sandí", "13_Fotografa": "a42e7f04-cc1e-4228-aacc-fc69bfc1fb97_1773175372.jpg" }, "geometry": { "type": "Point", "coordinates": [ -82.871508, 8.665569 ] } },
{ "type": "Feature", "properties": { "ec5_uuid": "47abe8b9-1b52-4bf0-9c50-cd72374505f6", "created_at": "2026-03-10T20:14:14Z", "uploaded_at": "2026-09-23T20:42:49Z", "created_by": "xmatamoros.xm@gmail.com", "title": "47abe8b9-1b52-4bf0-9c50-cd72374505f6", "1_Territorio_Indgena": "Abrojo Montezuma [ABM-01]", "lat_2_Ubicacin": 8.655874, "long_2_Ubicacin": -82.877085, "accuracy_2_Ubicacin": 3, "UTM_Northing_2_Ubicacin": 957316, "UTM_Easting_2_Ubicacin": 293455, "UTM_Zone_2_Ubicacin": "17P", "3_Nombre_de_Proyecto": "Proyecto Salón Comunal Montezuma", "4_Descripcin_de_proy": "Salón Comunal Montezuma \nApoyo brindado: \n-Compra de materiales para la ampliación del salón\n", "5_Inversin_CREF": 15000000, "6_Comunidad_TI": "Abrojo Montezuma", "7_Fecha_de_Inicio__F": "2025", "8_Desembolso_CREF": "I Desembolso CREF", "9_Bloque": "Ngöbe", "10_Hora": "14:11:00", "11_Fecha_de_visita": "10/03/2026", "12_Colaboradora_o": "Ximena Matamoros Sandí", "13_Fotografa": "47abe8b9-1b52-4bf0-9c50-cd72374505f6_1773173624.jpg" }, "geometry": { "type": "Point", "coordinates": [ -82.877085, 8.655874 ] } },
{ "type": "Feature", "properties": { "ec5_uuid": "2cfd96d9-8606-45ff-8032-911e1975ef95", "created_at": "2026-03-10T20:11:31Z", "uploaded_at": "2026-09-23T20:41:50Z", "created_by": "xmatamoros.xm@gmail.com", "title": "2cfd96d9-8606-45ff-8032-911e1975ef95", "1_Territorio_Indgena": "Abrojo Montezuma [ABM-01]", "lat_2_Ubicacin": 8.65582, "long_2_Ubicacin": -82.877201, "accuracy_2_Ubicacin": 9, "UTM_Northing_2_Ubicacin": 957310, "UTM_Easting_2_Ubicacin": 293442, "UTM_Zone_2_Ubicacin": "17P", "3_Nombre_de_Proyecto": "Proyecto instalación de enmallado", "4_Descripcin_de_proy": "Proyecto de instalación de enmallado\nApyo brindado: inatlación de 100mts de malla\n", "5_Inversin_CREF": 2500000, "6_Comunidad_TI": "Abrojo Montezuma", "7_Fecha_de_Inicio__F": "2025", "8_Desembolso_CREF": "I Desembolso CREF", "9_Bloque": "Ngöbe", "10_Hora": "14:09:00", "11_Fecha_de_visita": "10/03/2026", "12_Colaboradora_o": "Ximena Matamoros Sandí", "13_Fotografa": "2cfd96d9-8606-45ff-8032-911e1975ef95_1773173483.jpg" }, "geometry": { "type": "Point", "coordinates": [ -82.877201, 8.65582 ] } },
{ "type": "Feature", "properties": { "ec5_uuid": "5ff762e6-3354-45c2-9256-a735cb2f4246", "created_at": "2026-03-10T19:42:57Z", "uploaded_at": "2026-09-23T20:48:53Z", "created_by": "xmatamoros.xm@gmail.com", "title": "5ff762e6-3354-45c2-9256-a735cb2f4246", "1_Territorio_Indgena": "Abrojo Montezuma [ABM-01]", "lat_2_Ubicacin": 8.660471, "long_2_Ubicacin": -82.891011, "accuracy_2_Ubicacin": 5, "UTM_Northing_2_Ubicacin": 957832, "UTM_Easting_2_Ubicacin": 291924, "UTM_Zone_2_Ubicacin": "17P", "3_Nombre_de_Proyecto": "Proyecto Tanque de distribución N°5 Alto Rey", "4_Descripcin_de_proy": "Instalación de Tanque 5 proveniente del Acueducto principal de Bella Vista,  el cual distribuye el agua a diferentes familias", "5_Inversin_CREF": 0, "6_Comunidad_TI": "Alto Rey Centro", "7_Fecha_de_Inicio__F": "2025", "8_Desembolso_CREF": "I Desembolso CREF", "9_Bloque": "Ngöbe", "10_Hora": "13:42:00", "11_Fecha_de_visita": "10/03/2026", "12_Colaboradora_o": "Ximena Matamoros Sandí", "13_Fotografa": "5ff762e6-3354-45c2-9256-a735cb2f4246_1773171773.jpg" }, "geometry": { "type": "Point", "coordinates": [ -82.891011, 8.660471 ] } },
{ "type": "Feature", "properties": { "ec5_uuid": "640a0523-8347-4f2d-8038-71c92f522053", "created_at": "2026-03-10T19:32:30Z", "uploaded_at": "2026-09-23T20:47:54Z", "created_by": "xmatamoros.xm@gmail.com", "title": "640a0523-8347-4f2d-8038-71c92f522053", "1_Territorio_Indgena": "Abrojo Montezuma [ABM-01]", "lat_2_Ubicacin": 8.66387, "long_2_Ubicacin": -82.88925, "accuracy_2_Ubicacin": 5, "UTM_Northing_2_Ubicacin": 958207, "UTM_Easting_2_Ubicacin": 292120, "UTM_Zone_2_Ubicacin": "17P", "3_Nombre_de_Proyecto": "Proyecto Mini acueducto Alto Rey", "4_Descripcin_de_proy": "Construcción de: \n-1 tanque de cemento \n-5 tanques de captación con capacidad de 2500 L c/u", "5_Inversin_CREF": 0, "6_Comunidad_TI": "Alto Rey", "7_Fecha_de_Inicio__F": "2025", "8_Desembolso_CREF": "I Desembolso CREF", "9_Bloque": "Ngöbe", "10_Hora": "13:31:00", "11_Fecha_de_visita": "10/03/2026", "12_Colaboradora_o": "Ximena Matamoros Sandí", "13_Fotografa": "640a0523-8347-4f2d-8038-71c92f522053_1773171146.jpg" }, "geometry": { "type": "Point", "coordinates": [ -82.88925, 8.66387 ] } },
{ "type": "Feature", "properties": { "ec5_uuid": "c72823d8-27e0-406c-9196-5d506f904120", "created_at": "2026-03-10T19:19:05Z", "uploaded_at": "2026-09-23T20:52:20Z", "created_by": "xmatamoros.xm@gmail.com", "title": "c72823d8-27e0-406c-9196-5d506f904120", "1_Territorio_Indgena": "Abrojo Montezuma [ABM-01]", "lat_2_Ubicacin": 8.664318, "long_2_Ubicacin": -82.894471, "accuracy_2_Ubicacin": 4, "UTM_Northing_2_Ubicacin": 958259, "UTM_Easting_2_Ubicacin": 291546, "UTM_Zone_2_Ubicacin": "17P", "3_Nombre_de_Proyecto": "Proyecto Tanque de distribución N°1 Alto Rey", "4_Descripcin_de_proy": "Instalación de Tanque N°1 proveniente del Acueducto principal de Alto Rey\nApoyo brindado: compra de  4k de manguera de distribución \nBeneficio social:  aprox 70 familias\nAlianzas: mano de obra con PRONAE\n", "5_Inversin_CREF": 0, "6_Comunidad_TI": "Alto Rey", "7_Fecha_de_Inicio__F": "2025", "8_Desembolso_CREF": "I Desembolso CREF", "9_Bloque": "Ngöbe", "10_Hora": "13:15:00", "11_Fecha_de_visita": "10/03/2026", "12_Colaboradora_o": "Ximena Matamoros Sandí", "13_Fotografa": "c72823d8-27e0-406c-9196-5d506f904120_1773170229.jpg" }, "geometry": { "type": "Point", "coordinates": [ -82.894471, 8.664318 ] } },
{ "type": "Feature", "properties": { "ec5_uuid": "27cd5b70-50b8-4c7a-a210-2e26f4ea2d1e", "created_at": "2026-01-20T20:30:19Z", "uploaded_at": "2026-09-23T20:54:40Z", "created_by": "andrema07@gmail.com", "title": "27cd5b70-50b8-4c7a-a210-2e26f4ea2d1e", "1_Territorio_Indgena": "Talamanca Cabécar [TCB-19]", "lat_2_Ubicacin": 9.604704, "long_2_Ubicacin": -82.982043, "accuracy_2_Ubicacin": 3, "UTM_Northing_2_Ubicacin": 1062335, "UTM_Easting_2_Ubicacin": 282478, "UTM_Zone_2_Ubicacin": "17P", "3_Nombre_de_Proyecto": "Construcción de gradas ", "4_Descripcin_de_proy": "n/d", "5_Inversin_CREF": 0, "6_Comunidad_TI": "Sibuju", "7_Fecha_de_Inicio__F": "n/d", "8_Desembolso_CREF": "I Desembolso CREF", "9_Bloque": "Caribe", "10_Hora": "14:29:00", "11_Fecha_de_visita": "20/01/2026", "12_Colaboradora_o": "Andrea Chinchilla Mata", "13_Fotografa": "27cd5b70-50b8-4c7a-a210-2e26f4ea2d1e_1768941046.jpg" }, "geometry": { "type": "Point", "coordinates": [ -82.982043, 9.604704 ] } },
{ "type": "Feature", "properties": { "ec5_uuid": "9283716a-1a71-452d-aabf-203df72435d4", "created_at": "2026-01-20T20:27:27Z", "uploaded_at": "2026-09-23T20:56:03Z", "created_by": "andrema07@gmail.com", "title": "9283716a-1a71-452d-aabf-203df72435d4", "1_Territorio_Indgena": "Talamanca Cabécar [TCB-19]", "lat_2_Ubicacin": 9.604661, "long_2_Ubicacin": -82.982387, "accuracy_2_Ubicacin": 5, "UTM_Northing_2_Ubicacin": 1062331, "UTM_Easting_2_Ubicacin": 282440, "UTM_Zone_2_Ubicacin": "17P", "3_Nombre_de_Proyecto": "Proyecto Salón Sibuju", "4_Descripcin_de_proy": " Proyecto ampliación y remodelación de Salón Sibuju\nApoyo brindado: \n-compra de materiales para ampliación\n-Compra Lina blanca", "5_Inversin_CREF": 0, "6_Comunidad_TI": "Sibuju", "7_Fecha_de_Inicio__F": "n/d", "8_Desembolso_CREF": "I Desembolso CREF", "9_Bloque": "Caribe", "10_Hora": "14:23:00", "11_Fecha_de_visita": "20/01/2026", "12_Colaboradora_o": "Andrea Chinchilla Mata", "13_Fotografa": "9283716a-1a71-452d-aabf-203df72435d4_1768940781.jpg" }, "geometry": { "type": "Point", "coordinates": [ -82.982387, 9.604661 ] } },
{ "type": "Feature", "properties": { "ec5_uuid": "1bea0549-ff8b-4a1e-98c9-205e78a41fb8", "created_at": "2026-01-20T20:05:53Z", "uploaded_at": "2026-09-23T20:58:28Z", "created_by": "andrema07@gmail.com", "title": "1bea0549-ff8b-4a1e-98c9-205e78a41fb8", "1_Territorio_Indgena": "Talamanca Cabécar [TCB-19]", "lat_2_Ubicacin": 9.591907, "long_2_Ubicacin": -83.010521, "accuracy_2_Ubicacin": 5, "UTM_Northing_2_Ubicacin": 1060938, "UTM_Easting_2_Ubicacin": 279343, "UTM_Zone_2_Ubicacin": "17P", "3_Nombre_de_Proyecto": "Proyecto Salón comunidad China Kicha", "4_Descripcin_de_proy": "Proyecto Salón China Kichá\nApoyo brindado: \n-Compra de materiales y mano de obra para la construcción  de salón \n-Beneficio social:  600 personas aprox", "5_Inversin_CREF": 0, "6_Comunidad_TI": "China Kicha", "7_Fecha_de_Inicio__F": "n/d", "8_Desembolso_CREF": "II Desembolso CREF", "9_Bloque": "Caribe", "10_Hora": "14:03:00", "11_Fecha_de_visita": "20/01/2026", "12_Colaboradora_o": "Andrea Chinchilla Mata", "13_Fotografa": "1bea0549-ff8b-4a1e-98c9-205e78a41fb8_1768939546.jpg" }, "geometry": { "type": "Point", "coordinates": [ -83.010521, 9.591907 ] } },
{ "type": "Feature", "properties": { "ec5_uuid": "7908c285-1eda-4c0d-8968-c97b0007e0e9", "created_at": "2026-01-20T19:48:07Z", "uploaded_at": "2026-09-23T20:59:44Z", "created_by": "andrema07@gmail.com", "title": "7908c285-1eda-4c0d-8968-c97b0007e0e9", "1_Territorio_Indgena": "Talamanca Cabécar [TCB-19]", "lat_2_Ubicacin": 9.592405, "long_2_Ubicacin": -83.025532, "accuracy_2_Ubicacin": 5, "UTM_Northing_2_Ubicacin": 1061002, "UTM_Easting_2_Ubicacin": 277695, "UTM_Zone_2_Ubicacin": "17P", "3_Nombre_de_Proyecto": "Proyecto Salón Comunal Gavilan Canta", "4_Descripcin_de_proy": "Apoyo brindado: \n-Compra de materiales para la construcción de salón comunal Gavilán Canta ", "5_Inversin_CREF": 0, "6_Comunidad_TI": "Gavilán Canta", "7_Fecha_de_Inicio__F": "n/d", "8_Desembolso_CREF": "II Desembolso CREF", "9_Bloque": "Caribe", "10_Hora": "13:46:00", "11_Fecha_de_visita": "20/01/2026", "12_Colaboradora_o": "Andrea Chinchilla Mata", "13_Fotografa": "7908c285-1eda-4c0d-8968-c97b0007e0e9_1768938477.jpg" }, "geometry": { "type": "Point", "coordinates": [ -83.025532, 9.592405 ] } },
{ "type": "Feature", "properties": { "ec5_uuid": "24ea3c71-59d4-4a7a-be25-1a289ede1e3a", "created_at": "2026-01-19T15:31:24Z", "uploaded_at": "2026-09-23T21:00:29Z", "created_by": "andrema07@gmail.com", "title": "24ea3c71-59d4-4a7a-be25-1a289ede1e3a", "1_Territorio_Indgena": "Talamanca Cabécar [TCB-19]", "lat_2_Ubicacin": 9.961118, "long_2_Ubicacin": -84.05927, "accuracy_2_Ubicacin": 6, "UTM_Northing_2_Ubicacin": 1102545, "UTM_Easting_2_Ubicacin": 822463, "UTM_Zone_2_Ubicacin": "16P", "3_Nombre_de_Proyecto": "Proyecto Construcción Caseta", "4_Descripcin_de_proy": "Apoyo brindado: Construcción de caseta", "5_Inversin_CREF": 0, "6_Comunidad_TI": "Gavilan", "7_Fecha_de_Inicio__F": "n/d", "8_Desembolso_CREF": "I Desembolso CREF", "9_Bloque": "Caribe", "10_Hora": "09:30:00", "11_Fecha_de_visita": "19/01/2026", "12_Colaboradora_o": "Andrea Chinchilla Mata", "13_Fotografa": "24ea3c71-59d4-4a7a-be25-1a289ede1e3a_1768836671.jpg" }, "geometry": { "type": "Point", "coordinates": [ -84.05927, 9.961118 ] } },
{ "type": "Feature", "properties": { "ec5_uuid": "e95bc282-4b15-4f29-91e0-d15a48f8f792", "created_at": "2025-12-08T20:46:11Z", "uploaded_at": "2026-09-23T21:15:22Z", "created_by": "xmatamoros.xm@gmail.com", "title": "e95bc282-4b15-4f29-91e0-d15a48f8f792", "1_Territorio_Indgena": "Cabagra [CBG-07]", "lat_2_Ubicacin": 9.150795, "long_2_Ubicacin": -83.201391, "accuracy_2_Ubicacin": 5, "UTM_Northing_2_Ubicacin": 1012263, "UTM_Easting_2_Ubicacin": 258080, "UTM_Zone_2_Ubicacin": "17P", "3_Nombre_de_Proyecto": "Proyecto Casa de Salud de San Juan de Cabagra", "4_Descripcin_de_proy": "Proyecto construcción de Casa de Salud de San Juan\nBeneficio social: Impacta 6 comunidades, 500 pp aproximadamente", "5_Inversin_CREF": 0, "6_Comunidad_TI": "San Juan de Cabagra", "7_Fecha_de_Inicio__F": "n/d", "8_Desembolso_CREF": "I Desembolso CREF", "9_Bloque": "Pacífico Sur ", "10_Hora": "14:44:00", "11_Fecha_de_visita": "08/12/2025", "12_Colaboradora_o": "Ximena Matamoros Sandí", "13_Fotografa": "e95bc282-4b15-4f29-91e0-d15a48f8f792_1765226766.jpg" }, "geometry": { "type": "Point", "coordinates": [ -83.201391, 9.150795 ] } },
{ "type": "Feature", "properties": { "ec5_uuid": "78148792-51b3-4fad-aacf-61ec38f05dcf", "created_at": "2025-12-08T20:11:28Z", "uploaded_at": "2026-09-23T21:31:02Z", "created_by": "xmatamoros.xm@gmail.com", "title": "78148792-51b3-4fad-aacf-61ec38f05dcf", "1_Territorio_Indgena": "Cabagra [CBG-07]", "lat_2_Ubicacin": 9.136846, "long_2_Ubicacin": -83.191094, "accuracy_2_Ubicacin": 5, "UTM_Northing_2_Ubicacin": 1010712, "UTM_Easting_2_Ubicacin": 259203, "UTM_Zone_2_Ubicacin": "17P", "3_Nombre_de_Proyecto": "Proyecto Centro de Vigilancia de Recursos Naturales ", "4_Descripcin_de_proy": "Proyecto Centro de Vigilancia para los Recursos Naturales \nApoyo brindado: construcción de infraestructura\nBeneficio social y ambiental: las personas guarda recursos se capacitan en este espacio a fin fortlacere sus capacidades en el monitoreo y vigilancia del TI ", "5_Inversin_CREF": 0, "6_Comunidad_TI": "San Rafael de Cabagra", "7_Fecha_de_Inicio__F": "2025", "8_Desembolso_CREF": "I Desembolso CREF", "9_Bloque": "Pacífico Sur ", "10_Hora": "14:09:00", "11_Fecha_de_visita": "08/12/2025", "12_Colaboradora_o": "Ximena Matamoros Sandí", "13_Fotografa": "78148792-51b3-4fad-aacf-61ec38f05dcf_1765224667.jpg" }, "geometry": { "type": "Point", "coordinates": [ -83.191094, 9.136846 ] } },
{ "type": "Feature", "properties": { "ec5_uuid": "cada2af0-9d5f-460e-a254-c95c09b05363", "created_at": "2025-11-18T18:51:42Z", "uploaded_at": "2026-09-23T21:05:44Z", "created_by": "xmatamoros.xm@gmail.com", "title": "cada2af0-9d5f-460e-a254-c95c09b05363", "1_Territorio_Indgena": "Alto Chirripó [AC-02]", "lat_2_Ubicacin": 9.817031, "long_2_Ubicacin": -83.457349, "accuracy_2_Ubicacin": 4, "UTM_Northing_2_Ubicacin": 1086168, "UTM_Easting_2_Ubicacin": 230457, "UTM_Zone_2_Ubicacin": "17P", "3_Nombre_de_Proyecto": "Proyecto Ayudas Sociales ", "4_Descripcin_de_proy": "Ayuda Social, apoyo brindado: \n-entrega de colchones y alimentos \n-mejoramiento de viviendas: laminas de zinc, mangueras, herramientas \n-salud entrega de: camas ortopédicas, sillas de ruedas, muletas, andaderas, bastón \n-Administración, compra de:  Vehículo 4x4, 2 motos todo terreno, equipo de oficina", "5_Inversin_CREF": 0, "6_Comunidad_TI": "Grano de Oro", "7_Fecha_de_Inicio__F": "n/d", "8_Desembolso_CREF": "I Desembolso CREF", "9_Bloque": "Caribe", "10_Hora": "12:47:00", "11_Fecha_de_visita": "18/11/2025", "12_Colaboradora_o": "Ximena Matamoros Sandí", "13_Fotografa": "cada2af0-9d5f-460e-a254-c95c09b05363_1763491882.jpg" }, "geometry": { "type": "Point", "coordinates": [ -83.457349, 9.817031 ] } },
{ "type": "Feature", "properties": { "ec5_uuid": "031b2c47-e4e3-4caa-ba3d-9ad483e171fc", "created_at": "2025-11-18T17:13:55Z", "uploaded_at": "2026-09-23T21:07:30Z", "created_by": "xmatamoros.xm@gmail.com", "title": "031b2c47-e4e3-4caa-ba3d-9ad483e171fc", "1_Territorio_Indgena": "Alto Chirripó [AC-02]", "lat_2_Ubicacin": 9.781589, "long_2_Ubicacin": -83.408221, "accuracy_2_Ubicacin": 10, "UTM_Northing_2_Ubicacin": 1082208, "UTM_Easting_2_Ubicacin": 235821, "UTM_Zone_2_Ubicacin": "17P", "3_Nombre_de_Proyecto": "Proyecto Camino Blori Ñak", "4_Descripcin_de_proy": "Proyecto de mejora camino Blori Ñak\nApoyo brindado:\n-Ampliación, lastreo de camino, colocación de cunetas, y mejoramiento de correntía del agua \n\n", "5_Inversin_CREF": 0, "6_Comunidad_TI": "Kabébata", "7_Fecha_de_Inicio__F": "n/d", "8_Desembolso_CREF": "I Desembolso CREF", "9_Bloque": "Caribe", "10_Hora": "11:10:00", "11_Fecha_de_visita": "18/11/2025", "12_Colaboradora_o": "Ximena Matamoros Sandí", "13_Fotografa": "031b2c47-e4e3-4caa-ba3d-9ad483e171fc_1763485964.jpg" }, "geometry": { "type": "Point", "coordinates": [ -83.408221, 9.781589 ] } }
]
}
